[{"OBJECT_NAME":"JAY-D1","OBJECT_ID":"2025-009BN","EPOCH":"2026-03-09T21:48:23.402016","MEAN_MOTION":15.21620147,"ECCENTRICITY":0.00044203,"INCLINATION":97.4075,"RA_OF_ASC_NODE":149.8053,"ARG_OF_PERICENTER":349.1681,"MEAN_ANOMALY":10.9459,"EPHEMERIS_TYPE":0,"CLASSIFICATION_TYPE":"U","NORAD_CAT_ID":62669,"ELEMENT_SET_NO":999,"REV_AT_EPOCH":12127,"BSTAR":0.00024428159,"MEAN_MOTION_DOT":5.448e-5,"MEAN_MOTION_DDOT":0},{"OBJECT_NAME":"TRANSPORTER-13 OBJECT U","OBJECT_ID":"2025-052U","EPOCH":"2026-03-09T16:34:18.384384","MEAN_MOTION":15.22399222,"ECCENTRICITY":0.00064743,"INCLINATION":97.4037,"RA_OF_ASC_NODE":322.9372,"ARG_OF_PERICENTER":126.5652,"MEAN_ANOMALY":233.6181,"EPHEMERIS_TYPE":0,"CLASSIFICATION_TYPE":"U","NORAD_CAT_ID":63228,"ELEMENT_SET_NO":999,"REV_AT_EPOCH":5472,"BSTAR":0.0003303988,"MEAN_MOTION_DOT":7.569e-5,"MEAN_MOTION_DDOT":0}]
